[{"OBJECT_NAME":"STARLINK-35646","OBJECT_ID":"2025-281M","EPOCH":"2026-01-08T06:00:02.999808","MEAN_MOTION":15.32530299,"ECCENTRICITY":0.00010708,"INCLINATION":43.0008,"RA_OF_ASC_NODE":324.8946,"ARG_OF_PERICENTER":262.5232,"MEAN_ANOMALY":6.9133,"EPHEMERIS_TYPE":0,"CLASSIFICATION_TYPE":"U","NORAD_CAT_ID":66859,"ELEMENT_SET_NO":999,"REV_AT_EPOCH":563,"BSTAR":-0.067809877,"MEAN_MOTION_DOT":-0.01939563,"MEAN_MOTION_DDOT":0},{"OBJECT_NAME":"STARLINK-35987","OBJECT_ID":"2025-281N","EPOCH":"2026-01-08T06:00:02.999808","MEAN_MOTION":15.37172252,"ECCENTRICITY":0.00011007,"INCLINATION":43.0004,"RA_OF_ASC_NODE":324.7297,"ARG_OF_PERICENTER":260.6522,"MEAN_ANOMALY":76.4508,"EPHEMERIS_TYPE":0,"CLASSIFICATION_TYPE":"U","NORAD_CAT_ID":66860,"ELEMENT_SET_NO":999,"REV_AT_EPOCH":563,"BSTAR":-0.059339512,"MEAN_MOTION_DOT":-0.01967784,"MEAN_MOTION_DDOT":0},{"OBJECT_NAME":"STARLINK-35991","OBJECT_ID":"2025-281P","EPOCH":"2026-01-08T06:00:02.999808","MEAN_MOTION":15.40251984,"ECCENTRICITY":0.00012847,"INCLINATION":42.9997,"RA_OF_ASC_NODE":324.6733,"ARG_OF_PERICENTER":267.6921,"MEAN_ANOMALY":92.5436,"EPHEMERIS_TYPE":0,"CLASSIFICATION_TYPE":"U","NORAD_CAT_ID":66861,"ELEMENT_SET_NO":999,"REV_AT_EPOCH":563,"BSTAR":-0.055723564,"MEAN_MOTION_DOT":-0.02037323,"MEAN_MOTION_DDOT":0},{"OBJECT_NAME":"STARLINK-35974","OBJECT_ID":"2025-281Q","EPOCH":"2026-01-08T06:00:02.999808","MEAN_MOTION":15.33500952,"ECCENTRICITY":0.00012839,"INCLINATION":43.0007,"RA_OF_ASC_NODE":324.8611,"ARG_OF_PERICENTER":242.1364,"MEAN_ANOMALY":40.9718,"EPHEMERIS_TYPE":0,"CLASSIFICATION_TYPE":"U","NORAD_CAT_ID":66862,"ELEMENT_SET_NO":999,"REV_AT_EPOCH":552,"BSTAR":-0.075237269,"MEAN_MOTION_DOT":-0.02226215,"MEAN_MOTION_DDOT":0},{"OBJECT_NAME":"STARLINK-36134","OBJECT_ID":"2025-281R","EPOCH":"2026-01-08T06:00:02.999808","MEAN_MOTION":15.42224853,"ECCENTRICITY":0.00015482,"INCLINATION":42.9996,"RA_OF_ASC_NODE":324.6332,"ARG_OF_PERICENTER":263.7131,"MEAN_ANOMALY":113.161,"EPHEMERIS_TYPE":0,"CLASSIFICATION_TYPE":"U","NORAD_CAT_ID":66863,"ELEMENT_SET_NO":999,"REV_AT_EPOCH":563,"BSTAR":-0.0523226,"MEAN_MOTION_DOT":-0.02043628,"MEAN_MOTION_DDOT":0},{"OBJECT_NAME":"STARLINK-36070","OBJECT_ID":"2025-281S","EPOCH":"2026-01-08T06:00:02.999808","MEAN_MOTION":15.28364205,"ECCENTRICITY":0.00012428,"INCLINATION":43.0001,"RA_OF_ASC_NODE":325.1141,"ARG_OF_PERICENTER":257.2419,"MEAN_ANOMALY":279.8703,"EPHEMERIS_TYPE":0,"CLASSIFICATION_TYPE":"U","NORAD_CAT_ID":66864,"ELEMENT_SET_NO":999,"REV_AT_EPOCH":566,"BSTAR":0.0021641438,"MEAN_MOTION_DOT":0.00061241,"MEAN_MOTION_DDOT":0},{"OBJECT_NAME":"STARLINK-36117","OBJECT_ID":"2025-281T","EPOCH":"2026-01-08T06:00:02.999808","MEAN_MOTION":15.39147259,"ECCENTRICITY":0.00011498,"INCLINATION":43.0005,"RA_OF_ASC_NODE":324.677,"ARG_OF_PERICENTER":258.7918,"MEAN_ANOMALY":99.5965,"EPHEMERIS_TYPE":0,"CLASSIFICATION_TYPE":"U","NORAD_CAT_ID":66865,"ELEMENT_SET_NO":999,"REV_AT_EPOCH":563,"BSTAR":-0.057219013,"MEAN_MOTION_DOT":-0.02018698,"MEAN_MOTION_DDOT":0},{"OBJECT_NAME":"STARLINK-36126","OBJECT_ID":"2025-281U","EPOCH":"2026-01-08T06:00:02.999808","MEAN_MOTION":15.28379259,"ECCENTRICITY":0.00012495,"INCLINATION":42.9997,"RA_OF_ASC_NODE":325.2738,"ARG_OF_PERICENTER":237.8389,"MEAN_ANOMALY":232.7269,"EPHEMERIS_TYPE":0,"CLASSIFICATION_TYPE":"U","NORAD_CAT_ID":66866,"ELEMENT_SET_NO":999,"REV_AT_EPOCH":566,"BSTAR":0.0020108588,"MEAN_MOTION_DOT":0.00056877,"MEAN_MOTION_DDOT":0},{"OBJECT_NAME":"STARLINK-36101","OBJECT_ID":"2025-281V","EPOCH":"2026-01-08T06:00:02.999808","MEAN_MOTION":15.28387569,"ECCENTRICITY":0.00010717,"INCLINATION":42.9998,"RA_OF_ASC_NODE":325.1699,"ARG_OF_PERICENTER":254.8206,"MEAN_ANOMALY":258.8741,"EPHEMERIS_TYPE":0,"CLASSIFICATION_TYPE":"U","NORAD_CAT_ID":66867,"ELEMENT_SET_NO":999,"REV_AT_EPOCH":546,"BSTAR":0.0021208674,"MEAN_MOTION_DOT":0.00060044,"MEAN_MOTION_DDOT":0},{"OBJECT_NAME":"STARLINK-36108","OBJECT_ID":"2025-281W","EPOCH":"2026-01-08T06:00:02.999808","MEAN_MOTION":15.28382429,"ECCENTRICITY":0.0001035,"INCLINATION":42.9999,"RA_OF_ASC_NODE":325.1589,"ARG_OF_PERICENTER":277.2482,"MEAN_ANOMALY":240.728,"EPHEMERIS_TYPE":0,"CLASSIFICATION_TYPE":"U","NORAD_CAT_ID":66868,"ELEMENT_SET_NO":999,"REV_AT_EPOCH":546,"BSTAR":0.00212469,"MEAN_MOTION_DOT":0.00060144,"MEAN_MOTION_DDOT":0},{"OBJECT_NAME":"STARLINK-36092","OBJECT_ID":"2025-281X","EPOCH":"2026-01-08T06:00:02.999808","MEAN_MOTION":15.28361927,"ECCENTRICITY":0.00016729,"INCLINATION":42.9999,"RA_OF_ASC_NODE":325.0558,"ARG_OF_PERICENTER":271.0091,"MEAN_ANOMALY":290.1503,"EPHEMERIS_TYPE":0,"CLASSIFICATION_TYPE":"U","NORAD_CAT_ID":66869,"ELEMENT_SET_NO":999,"REV_AT_EPOCH":566,"BSTAR":0.0023309425,"MEAN_MOTION_DOT":0.0006602,"MEAN_MOTION_DDOT":0},{"OBJECT_NAME":"STARLINK-36114","OBJECT_ID":"2025-281Y","EPOCH":"2026-01-08T06:00:02.999808","MEAN_MOTION":15.28353807,"ECCENTRICITY":9.823e-5,"INCLINATION":43.0009,"RA_OF_ASC_NODE":324.9828,"ARG_OF_PERICENTER":277.3004,"MEAN_ANOMALY":313.9639,"EPHEMERIS_TYPE":0,"CLASSIFICATION_TYPE":"U","NORAD_CAT_ID":66870,"ELEMENT_SET_NO":999,"REV_AT_EPOCH":553,"BSTAR":0.0023615169,"MEAN_MOTION_DOT":0.0006688,"MEAN_MOTION_DDOT":0},{"OBJECT_NAME":"STARLINK-36095","OBJECT_ID":"2025-281Z","EPOCH":"2026-01-08T06:00:02.999808","MEAN_MOTION":15.29683902,"ECCENTRICITY":8.751e-5,"INCLINATION":43.0014,"RA_OF_ASC_NODE":324.9371,"ARG_OF_PERICENTER":282.4597,"MEAN_ANOMALY":327.47,"EPHEMERIS_TYPE":0,"CLASSIFICATION_TYPE":"U","NORAD_CAT_ID":66871,"ELEMENT_SET_NO":999,"REV_AT_EPOCH":566,"BSTAR":-0.063981276,"MEAN_MOTION_DOT":-0.01698378,"MEAN_MOTION_DDOT":0},{"OBJECT_NAME":"STARLINK-36082","OBJECT_ID":"2025-281AA","EPOCH":"2026-01-08T06:00:02.999808","MEAN_MOTION":15.30885349,"ECCENTRICITY":0.00018358,"INCLINATION":43.0005,"RA_OF_ASC_NODE":324.8972,"ARG_OF_PERICENTER":271.6281,"MEAN_ANOMALY":355.2315,"EPHEMERIS_TYPE":0,"CLASSIFICATION_TYPE":"U","NORAD_CAT_ID":66872,"ELEMENT_SET_NO":999,"REV_AT_EPOCH":553,"BSTAR":-0.084065313,"MEAN_MOTION_DOT":-0.02283091,"MEAN_MOTION_DDOT":0},{"OBJECT_NAME":"STARLINK-36128","OBJECT_ID":"2025-281AB","EPOCH":"2026-01-08T06:00:02.999808","MEAN_MOTION":15.33798378,"ECCENTRICITY":0.0001118,"INCLINATION":43.0007,"RA_OF_ASC_NODE":324.7731,"ARG_OF_PERICENTER":262.216,"MEAN_ANOMALY":55.4498,"EPHEMERIS_TYPE":0,"CLASSIFICATION_TYPE":"U","NORAD_CAT_ID":66873,"ELEMENT_SET_NO":999,"REV_AT_EPOCH":566,"BSTAR":-0.065666056,"MEAN_MOTION_DOT":-0.01954,"MEAN_MOTION_DDOT":0},{"OBJECT_NAME":"STARLINK-36129","OBJECT_ID":"2025-281AC","EPOCH":"2026-01-08T06:00:02.999808","MEAN_MOTION":15.31593559,"ECCENTRICITY":6.448e-5,"INCLINATION":43.0007,"RA_OF_ASC_NODE":324.8561,"ARG_OF_PERICENTER":293.5033,"MEAN_ANOMALY":349.7361,"EPHEMERIS_TYPE":0,"CLASSIFICATION_TYPE":"U","NORAD_CAT_ID":66874,"ELEMENT_SET_NO":999,"REV_AT_EPOCH":566,"BSTAR":-0.064695407,"MEAN_MOTION_DOT":-0.01810647,"MEAN_MOTION_DDOT":0}]
