STARLINK-35646          
1 66859U 25281M   26008.25003472 -.01939563  00000+0 -67810-1 0  9991
2 66859  43.0008 324.8946 0001070 262.5232   6.9133 15.32530299  5632
STARLINK-35987          
1 66860U 25281N   26008.25003472 -.01967784  00000+0 -59340-1 0  9998
2 66860  43.0004 324.7297 0001100 260.6522  76.4508 15.37172252  5637
STARLINK-35991          
1 66861U 25281P   26008.25003472 -.02037323  00000+0 -55724-1 0  9999
2 66861  42.9997 324.6733 0001284 267.6921  92.5436 15.40251984  5637
STARLINK-35974          
1 66862U 25281Q   26008.25003472 -.02226215  00000+0 -75237-1 0  9991
2 66862  43.0007 324.8611 0001283 242.1364  40.9718 15.33500952  5529
STARLINK-36134          
1 66863U 25281R   26008.25003472 -.02043628  00000+0 -52323-1 0  9998
2 66863  42.9996 324.6332 0001548 263.7131 113.1610 15.42224853  5637
STARLINK-36070          
1 66864U 25281S   26008.25003472  .00061241  00000+0  21641-2 0  9996
2 66864  43.0001 325.1141 0001242 257.2419 279.8703 15.28364205  5665
STARLINK-36117          
1 66865U 25281T   26008.25003472 -.02018698  00000+0 -57219-1 0  9998
2 66865  43.0005 324.6770 0001149 258.7918  99.5965 15.39147259  5632
STARLINK-36126          
1 66866U 25281U   26008.25003472  .00056877  00000+0  20109-2 0  9995
2 66866  42.9997 325.2738 0001249 237.8389 232.7269 15.28379259  5669
STARLINK-36101          
1 66867U 25281V   26008.25003472  .00060044  00000+0  21209-2 0  9999
2 66867  42.9998 325.1699 0001071 254.8206 258.8741 15.28387569  5461
STARLINK-36108          
1 66868U 25281W   26008.25003472  .00060144  00000+0  21247-2 0  9993
2 66868  42.9999 325.1589 0001035 277.2482 240.7280 15.28382429  5464
STARLINK-36092          
1 66869U 25281X   26008.25003472  .00066020  00000+0  23309-2 0  9994
2 66869  42.9999 325.0558 0001672 271.0091 290.1503 15.28361927  5664
STARLINK-36114          
1 66870U 25281Y   26008.25003472  .00066880  00000+0  23615-2 0  9990
2 66870  43.0009 324.9828 0000982 277.3004 313.9639 15.28353807  5532
STARLINK-36095          
1 66871U 25281Z   26008.25003472 -.01698378  00000+0 -63981-1 0  9996
2 66871  43.0014 324.9371 0000875 282.4597 327.4700 15.29683902  5663
STARLINK-36082          
1 66872U 25281AA  26008.25003472 -.02283091  00000+0 -84065-1 0  9996
2 66872  43.0005 324.8972 0001835 271.6281 355.2315 15.30885349  5535
STARLINK-36128          
1 66873U 25281AB  26008.25003472 -.01954000  00000+0 -65666-1 0  9997
2 66873  43.0007 324.7731 0001118 262.2160  55.4498 15.33798378  5669
STARLINK-36129          
1 66874U 25281AC  26008.25003472 -.01810647  00000+0 -64695-1 0  9997
2 66874  43.0007 324.8561 0000644 293.5033 349.7361 15.31593559  5661
